[
    {
        "Altitude(m)": 617719.7659540721,
        "Argument of Periapsis(deg)": 0.0,
        "Eccentricity": 0.0,
        "Inclination(deg)": 60.0,
        "Latitude(deg)": -41.10262659933291,
        "Longitude(deg)": -159.90545697885355,
        "Mean Anomaly(deg)": 229.09090000000006,
        "RAAN(deg)": 90.0,
        "Satellite Name": "Test1 410",
        "Satellite Number": 410,
        "Semi-Major Axis(m)": 6980739.136638005,
        "Time(s)": 0
    },
    {
        "Altitude(m)": 617911.3022399788,
        "Argument of Periapsis(deg)": 0.00010418945913296404,
        "Eccentricity": 0.0,
        "Inclination(deg)": 60.0,
        "Latitude(deg)": -41.56581963357285,
        "Longitude(deg)": -159.4010522403679,
        "Mean Anomaly(deg)": 229.71100614546188,
        "RAAN(deg)": 89.99957995086027,
        "Satellite Name": "Test1 410",
        "Satellite Number": 410,
        "Semi-Major Axis(m)": 6980739.136638005,
        "Time(s)": 10
    }
]